{"type": "FeatureCollection", "features": [ {"type": "Feature", "properties": {"norad_id": 32205, "name": "FENGYUN 1C DEB", "group": "fengyun-1c-debris", "lat": 44.84377520874736, "lon": -167.4793307578265, "alt_km": 845.2209760628375, "timestamp": "2025-12-26T06:43:29.797691+00:00", "meta": {"OBJECT_NAME": "FENGYUN 1C DEB", "OBJECT_ID": "1999-025CVB", "EPOCH": "2025-12-25T12:07:28.906752", "MEAN_MOTION": 14.13919478, "ECCENTRICITY": 0.0010051, "INCLINATION": 98.6781, "RA_OF_ASC_NODE": 3.0315, "ARG_OF_PERICENTER": 252.0672, "MEAN_ANOMALY": 259.7759, "EPHEMERIS_TYPE": 0, "CLASSIFICATION_TYPE": "U", "NORAD_CAT_ID": 32205, "ELEMENT_SET_NO": 999, "REV_AT_EPOCH": 94678, "BSTAR": 0.00016074, "MEAN_MOTION_DOT": 2.62e-06, "MEAN_MOTION_DDOT": 0}, "tle": {"line1": "1 32205U 99025CVB 25359.50519568  .00000262  00000+0  16074-3 0  9990", "line2": "2 32205  98.6781   3.0315 0010051 252.0672 259.7759 14.13919478946781"}}, "geometry": {"type": "Point", "coordinates": [-167.4793307578265, 44.84377520874736]}}, {"type": "Feature", "properties": {"norad_id": 32207, "name": "FENGYUN 1C DEB", "group": "fengyun-1c-debris", "lat": 35.65885711111861, "lon": -45.94984106575742, "alt_km": 728.760805481933, "timestamp": "2025-12-26T06:43:29.797702+00:00", "meta": {"OBJECT_NAME": "FENGYUN 1C DEB", "OBJECT_ID": "1999-025CVD", "EPOCH": "2025-12-24T03:08:15.079776", "MEAN_MOTION": 14.39594058, "ECCENTRICITY": 0.00857499, "INCLINATION": 99.8579, "RA_OF_ASC_NODE": 318.7475, "ARG_OF_PERICENTER": 105.1549, "MEAN_ANOMALY": 318.4883, "EPHEMERIS_TYPE": 0, "CLASSIFICATION_TYPE": "U", "NORAD_CAT_ID": 32207, "ELEMENT_SET_NO": 999, "REV_AT_EPOCH": 64471, "BSTAR": 0.00030810489, "MEAN_MOTION_DOT": 9.47e-06, "MEAN_MOTION_DDOT": 0}, "tle": {"line1": "1 32207U 99025CVD 25358.13073009  .00000947  00000+0  30810-3 0  9999", "line2": "2 32207  99.8579 318.7475 0085749 105.1549 318.4883 14.39594058644711"}}, "geometry": {"type": "Point", "coordinates": [-45.94984106575742, 35.65885711111861]}}, {"type": "Feature", "properties": {"norad_id": 32209, "name": "FENGYUN 1C DEB", "group": "fengyun-1c-debris", "lat": 79.39287047305157, "lon": -170.63312792377255, "alt_km": 1124.5508730557676, "timestamp": "2025-12-26T06:43:29.797712+00:00", "meta": {"OBJECT_NAME": "FENGYUN 1C DEB", "OBJECT_ID": "1999-025CVF", "EPOCH": "2025-12-16T19:55:00.323040", "MEAN_MOTION": 13.47189962, "ECCENTRICITY": 0.0333308, "INCLINATION": 99.4209, "RA_OF_ASC_NODE": 298.0158, "ARG_OF_PERICENTER": 15.1266, "MEAN_ANOMALY": 345.9549, "EPHEMERIS_TYPE": 0, "CLASSIFICATION_TYPE": "U", "NORAD_CAT_ID": 32209, "ELEMENT_SET_NO": 999, "REV_AT_EPOCH": 90031, "BSTAR": 0.0022098107, "MEAN_MOTION_DOT": 1.847e-05, "MEAN_MOTION_DDOT": 0}, "tle": {"line1": "1 32209U 99025CVF 25350.82986485  .00001847  00000+0  22098-2 0  9998", "line2": "2 32209  99.4209 298.0158 0333308  15.1266 345.9549 13.47189962900317"}}, "geometry": {"type": "Point", "coordinates": [-170.63312792377255, 79.39287047305157]}}, {"type": "Feature", "properties": {"norad_id": 32212, "name": "FENGYUN 1C DEB", "group": "fengyun-1c-debris", "lat": 41.053559099241056, "lon": -72.9816656717398, "alt_km": 767.651664771498, "timestamp": "2025-12-26T06:43:29.797723+00:00", "meta": {"OBJECT_NAME": "FENGYUN 1C DEB", "OBJECT_ID": "1999-025CVJ", "EPOCH": "2025-12-22T12:21:50.056416", "MEAN_MOTION": 14.40349995, "ECCENTRICITY": 0.01376106, "INCLINATION": 99.5728, "RA_OF_ASC_NODE": 94.3588, "ARG_OF_PERICENTER": 50.2821, "MEAN_ANOMALY": 14.4282, "EPHEMERIS_TYPE": 0, "CLASSIFICATION_TYPE": "U", "NORAD_CAT_ID": 32212, "ELEMENT_SET_NO": 999, "REV_AT_EPOCH": 96202, "BSTAR": 0.00040041333, "MEAN_MOTION_DOT": 1.362e-05, "MEAN_MOTION_DDOT": 0}, "tle": {"line1": "1 32212U 99025CVJ 25356.51516269  .00001362  00000+0  40041-3 0  9994", "line2": "2 32212  99.5728  94.3588 0137610  50.2821  14.4282 14.40349995962023"}}, "geometry": {"type": "Point", "coordinates": [-72.9816656717398, 41.053559099241056]}}, {"type": "Feature", "properties": {"norad_id": 32214, "name": "FENGYUN 1C DEB", "group": "fengyun-1c-debris", "lat": 66.83623495671795, "lon": 3.685718927094761, "alt_km": 862.4690989276905, "timestamp": "2025-12-26T06:43:29.797734+00:00", "meta": {"OBJECT_NAME": "FENGYUN 1C DEB", "OBJECT_ID": "1999-025CVL", "EPOCH": "2025-12-24T01:00:42.312960", "MEAN_MOTION": 13.90653385, "ECCENTRICITY": 0.01879001, "INCLINATION": 99.0434, "RA_OF_ASC_NODE": 23.36, "ARG_OF_PERICENTER": 8.367, "MEAN_ANOMALY": 19.8193, "EPHEMERIS_TYPE": 0, "CLASSIFICATION_TYPE": "U", "NORAD_CAT_ID": 32214, "ELEMENT_SET_NO": 999, "REV_AT_EPOCH": 62579, "BSTAR": 0.0037385587, "MEAN_MOTION_DOT": 5.338e-05, "MEAN_MOTION_DDOT": 0}, "tle": {"line1": "1 32214U 99025CVL 25358.04215640  .00005338  00000+0  37386-2 0  9999", "line2": "2 32214  99.0434  23.3600 0187900   8.3670  19.8193 13.90653385625799"}}, "geometry": {"type": "Point", "coordinates": [3.685718927094761, 66.83623495671795]}}, {"type": "Feature", "properties": {"norad_id": 32218, "name": "FENGYUN 1C DEB", "group": "fengyun-1c-debris", "lat": -37.11324635474011, "lon": 8.146942663374556, "alt_km": 757.6563416509698, "timestamp": "2025-12-26T06:43:29.797744+00:00", "meta": {"OBJECT_NAME": "FENGYUN 1C DEB", "OBJECT_ID": "1999-025CVQ", "EPOCH": "2025-12-24T19:10:15.688416", "MEAN_MOTION": 14.55567968, "ECCENTRICITY": 0.00629807, "INCLINATION": 98.8115, "RA_OF_ASC_NODE": 193.3249, "ARG_OF_PERICENTER": 31.2124, "MEAN_ANOMALY": 348.2628, "EPHEMERIS_TYPE": 0, "CLASSIFICATION_TYPE": "U", "NORAD_CAT_ID": 32218, "ELEMENT_SET_NO": 999, "REV_AT_EPOCH": 96408, "BSTAR": 0.00083900696, "MEAN_MOTION_DOT": 3.704e-05, "MEAN_MOTION_DDOT": 0}, "tle": {"line1": "1 32218U 99025CVQ 25358.79879269  .00003704  00000+0  83901-3 0  9998", "line2": "2 32218  98.8115 193.3249 0062980  31.2124 348.2628 14.55567968964085"}}, "geometry": {"type": "Point", "coordinates": [8.146942663374556, -37.11324635474011]}}, {"type": "Feature", "properties": {"norad_id": 32221, "name": "FENGYUN 1C DEB", "group": "fengyun-1c-debris", "lat": -78.12473722085619, "lon": -75.1693569825331, "alt_km": 800.5257071591095, "timestamp": "2025-12-26T06:43:29.797754+00:00", "meta": {"OBJECT_NAME": "FENGYUN 1C DEB", "OBJECT_ID": "1999-025CVT", "EPOCH": "2025-12-25T03:11:58.276032", "MEAN_MOTION": 14.58742208, "ECCENTRICITY": 0.0147149, "INCLINATION": 98.5667, "RA_OF_ASC_NODE": 149.4431, "ARG_OF_PERICENTER": 107.7631, "MEAN_ANOMALY": 253.9687, "EPHEMERIS_TYPE": 0, "CLASSIFICATION_TYPE": "U", "NORAD_CAT_ID": 32221, "ELEMENT_SET_NO": 999, "REV_AT_EPOCH": 97378, "BSTAR": 0.00030621, "MEAN_MOTION_DOT": 1.605e-05, "MEAN_MOTION_DDOT": 0}, "tle": {"line1": "1 32221U 99025CVT 25359.13331338  .00001605  00000+0  30621-3 0  9990", "line2": "2 32221  98.5667 149.4431 0147149 107.7631 253.9687 14.58742208973785"}}, "geometry": {"type": "Point", "coordinates": [-75.1693569825331, -78.12473722085619]}}, {"type": "Feature", "properties": {"norad_id": 32223, "name": "FENGYUN 1C DEB", "group": "fengyun-1c-debris", "lat": 68.39677543632645, "lon": -77.52416610347026, "alt_km": 848.1609577094132, "timestamp": "2025-12-26T06:43:29.797764+00:00", "meta": {"OBJECT_NAME": "FENGYUN 1C DEB", "OBJECT_ID": "1999-025CVV", "EPOCH": "2025-12-24T12:01:45.645600", "MEAN_MOTION": 14.2096102, "ECCENTRICITY": 0.00465089, "INCLINATION": 98.8361, "RA_OF_ASC_NODE": 77.5673, "ARG_OF_PERICENTER": 283.0838, "MEAN_ANOMALY": 91.5397, "EPHEMERIS_TYPE": 0, "CLASSIFICATION_TYPE": "U", "NORAD_CAT_ID": 32223, "ELEMENT_SET_NO": 999, "REV_AT_EPOCH": 64391, "BSTAR": 0.00146638, "MEAN_MOTION_DOT": 3.167e-05, "MEAN_MOTION_DDOT": 0}, "tle": {"line1": "1 32223U 99025CVV 25358.50122275  .00003167  00000+0  14664-2 0  9993", "line2": "2 32223  98.8361  77.5673 0046508 283.0838  91.5397 14.20961020643911"}}, "geometry": {"type": "Point", "coordinates": [-77.52416610347026, 68.39677543632645]}}, {"type": "Feature", "properties": {"norad_id": 32224, "name": "FENGYUN 1C DEB", "group": "fengyun-1c-debris", "lat": 38.93512508951396, "lon": 139.15827413096662, "alt_km": 796.3888977166807, "timestamp": "2025-12-26T06:43:29.797774+00:00", "meta": {"OBJECT_NAME": "FENGYUN 1C DEB", "OBJECT_ID": "1999-025CVW", "EPOCH": "2025-12-25T20:01:51.442752", "MEAN_MOTION": 14.34047856, "ECCENTRICITY": 0.00768345, "INCLINATION": 98.9858, "RA_OF_ASC_NODE": 311.3508, "ARG_OF_PERICENTER": 28.681, "MEAN_ANOMALY": 331.8567, "EPHEMERIS_TYPE": 0, "CLASSIFICATION_TYPE": "U", "NORAD_CAT_ID": 32224, "ELEMENT_SET_NO": 999, "REV_AT_EPOCH": 95911, "BSTAR": 0.00036578669, "MEAN_MOTION_DOT": 1.009e-05, "MEAN_MOTION_DDOT": 0}, "tle": {"line1": "1 32224U 99025CVW 25359.83462318  .00001009  00000+0  36579-3 0  9999", "line2": "2 32224  98.9858 311.3508 0076834  28.6810 331.8567 14.34047856959116"}}, "geometry": {"type": "Point", "coordinates": [139.15827413096662, 38.93512508951396]}}, {"type": "Feature", "properties": {"norad_id": 32225, "name": "FENGYUN 1C DEB", "group": "fengyun-1c-debris", "lat": 26.147671383121807, "lon": -126.33986301468128, "alt_km": 797.4765583274002, "timestamp": "2025-12-26T06:43:29.797784+00:00", "meta": {"OBJECT_NAME": "FENGYUN 1C DEB", "OBJECT_ID": "1999-025CVX", "EPOCH": "2025-12-25T23:12:12.864384", "MEAN_MOTION": 14.13056335, "ECCENTRICITY": 0.00722675, "INCLINATION": 99.0905, "RA_OF_ASC_NODE": 48.8339, "ARG_OF_PERICENTER": 169.3756, "MEAN_ANOMALY": 190.8962, "EPHEMERIS_TYPE": 0, "CLASSIFICATION_TYPE": "U", "NORAD_CAT_ID": 32225, "ELEMENT_SET_NO": 999, "REV_AT_EPOCH": 68303, "BSTAR": 0.00020116551, "MEAN_MOTION_DOT": 3.39e-06, "MEAN_MOTION_DDOT": 0}, "tle": {"line1": "1 32225U 99025CVX 25359.96681556  .00000339  00000+0  20117-3 0  9997", "line2": "2 32225  99.0905  48.8339 0072267 169.3756 190.8962 14.13056335683030"}}, "geometry": {"type": "Point", "coordinates": [-126.33986301468128, 26.147671383121807]}}]}